COSMOS 2426 (717)       
1 29671U 06062B   20042.29977801  .00000047  00000-0  10000-3 0  9995
2 29671  65.0160 272.2105 0019668 170.4548 154.7237  2.12962365102180
COSMOS 2433 (720)       
1 32275U 07052A   20042.50854852 -.00000026  00000-0  10000-3 0  9991
2 32275  65.9408  33.1497 0005446 266.7277 293.6537  2.13104440 95701
COSMOS 2432 (719)       
1 32276U 07052B   20042.31127110 -.00000025  00000-0  10000-3 0  9990
2 32276  65.9544  33.2431 0012420 320.0594  39.4409  2.13103771 95696
COSMOS 2434 (721)       
1 32393U 07065A   20042.52191918  .00000046  00000-0  00000-0 0  9992
2 32393  64.6221 270.7763 0004452  78.4474  19.6163  2.13103045 94417
COSMOS 2436 (723)       
1 32395U 07065C   20041.91786260  .00000052  00000-0  10000-3 0  9997
2 32395  64.6291 270.8439 0015292   5.7968 125.1308  2.13102857 94337
COSMOS 2456 (730)       
1 36111U 09070A   20042.57751831  .00000027  00000-0  00000-0 0  9992
2 36111  64.2174 150.4367 0003132 327.6827 346.4231  2.13102812 79074
COSMOS 2457 (733)       
1 36112U 09070B   20042.35275865  .00000027  00000-0  00000-0 0  9997
2 36112  64.1988 150.3394 0006023 158.3262 107.2378  2.13101454 79076
COSMOS 2459 (731)       
1 36400U 10007A   20042.23521222 -.00000026  00000-0  10000-3 0  9991
2 36400  65.8446  32.1455 0026727 344.3744 221.2834  2.13105218 77426
COSMOS 2461 (735)       
1 36401U 10007B   20042.31716163 -.00000027  00000-0  10000-3 0  9992
2 36401  65.8376  32.1132 0005019  44.4425 133.6223  2.13102051 77426
COSMOS 2460 (732)       
1 36402U 10007C   20042.30127759 -.00000027  00000-0  10000-3 0  9999
2 36402  65.8279  32.0745 0002715 279.6804 285.5818  2.13101479 77421
COSMOS 2464 (736)       
1 37139U 10041C   20042.24836037  .00000048  00000-0  00000+0 0  9991
2 37139  64.2224 270.2881 0027649  12.9809  99.7642  2.13100723 73499
COSMOS 2474 (742)       
1 37829U 11055A   20042.41266553  .00000028  00000-0  00000-0 0  9991
2 37829  64.5374 151.4126 0008613 242.4297 160.5440  2.13101932 65078
COSMOS 2476 (744)       
1 37867U 11064A   20042.34237749  .00000028  00000-0  00000+0 0  9999
2 37867  64.5180 151.4618 0018486 235.6510 159.5925  2.13101887 64425
COSMOS 2477 (745)       
1 37868U 11064B   20042.53982159  .00000028  00000-0  00000-0 0  9994
2 37868  64.5258 151.5098 0016282 236.8470 128.4383  2.13101738 64388
COSMOS 2475 (743)       
1 37869U 11064C   20042.48661166  .00000028  00000-0  00000-0 0  9991
2 37869  64.5322 151.5128 0020091 260.6879  21.0727  2.13101908 64385
COSMOS 2485 (747)       
1 39155U 13019A   20041.76368785  .00000026  00000-0  00000-0 0  9992
2 39155  64.6858 151.7226 0019137 231.1623 124.7627  2.13101853 52870
COSMOS 2492 (754)       
1 39620U 14012A   20042.37871118 -.00000027  00000-0  10000-3 0  9996
2 39620  65.7183  31.8734 0015757 318.4904 184.3607  2.13103394 45848
COSMOS 2500 (755)       
1 40001U 14032A   20042.37826834 -.00000028  00000-0  00000-0 0  9995
2 40001  65.6602  31.7977 0007637 227.3984 135.9399  2.13102647 44063
COSMOS 2501 (702K)      
1 40315U 14075A   20042.57146368  .00000043  00000-0  00000-0 0  9995
2 40315  63.9394 271.2707 0014963 207.2725 100.2643  2.13098521 40464
COSMOS 2514 (751)       
1 41330U 16008A   20042.38193258 -.00000028  00000-0  00000-0 0  9994
2 41330  65.4616  31.7015 0011309 228.1998 320.1329  2.13103038 31220
COSMOS 2516 (753)       
1 41554U 16032A   20042.57588405  .00000044  00000-0  00000-0 0  9999
2 41554  64.1612 271.3061 0010694 218.5871   9.2195  2.13101852 28833
COSMOS 2522 (752)       
1 42939U 17055A   20042.27653032  .00000047  00000-0  00000-0 0  9992
2 42939  64.3939 271.4607 0005822 255.4411 329.2605  2.13102052 18584
COSMOS 2527 (756)       
1 43508U 18053A   20042.34776758  .00000028  00000-0  00000-0 0  9992
2 43508  64.8503 151.5250 0006728 225.0060  85.9717  2.13102637 12875
COSMOS 2529 (757)       
1 43687U 18086A   20041.57618797  .00000055  00000-0  00000-0 0  9998
2 43687  64.6124 271.5696 0008901 281.8180  81.2411  2.13102111  9889
COSMOS 2534 (758)       
1 44299U 19030A   20040.85337561  .00000063  00000-0  00000-0 0  9994
2 44299  64.6799 271.3984 0012363 298.8979   4.7392  2.13101793  5504
